TIGRISAT                
1 40043U 14033AK  26063.46800355  .00003648  00000+0  42735-3 0  9994
2 40043  97.7659 215.9997 0050694  59.1928 301.4262 14.84695897630082
AEROCUBE 6A             
1 40045U 14033AM  26063.91706342  .00008557  00000+0  74135-3 0  9990
2 40045  97.7114 232.1248 0039227   5.5740 354.5910 14.96758406631018
AEROCUBE 6B             
1 40046U 14033AN  26063.68427425  .00010644  00000+0  88940-3 0  9996
2 40046  97.7113 231.4787 0037657 359.4038   0.7133 14.98143365631105
CANX-4                  
1 40055U 14034C   26064.18446866  .00001619  00000+0  21591-3 0  9994
2 40055  98.3284 295.5991 0012638 351.2831   8.8158 14.81048424629130
CANX-5                  
1 40056U 14034D   26064.18409246  .00001618  00000+0  21571-3 0  9993
2 40056  98.3285 295.6362 0012639 351.4830   8.6165 14.81065089619947
UKUBE-1                 
1 40074U 14037F   26063.91784777  .00013536  00000+0  79920-3 0  9994
2 40074  98.4229  56.3944 0002752 116.7674 243.3835 15.11664851632793
BRITE-PL2 (HEWELIUSZ)   
1 40119U 14049B   26064.25321353  .00003951  00000+0  37386-3 0  9992
2 40119  97.8983 175.5580 0015577  94.9848 265.3150 14.94153983625922
AEROCUBE 5C             
1 40965U 15058B   26063.88214662  .00005540  00000+0  49125-3 0  9994
2 40965  64.7665 226.9201 0130974 104.4024 257.1666 14.90804150350105
AEROCUBE 7              
1 40966U 15058C   26063.83368915  .00007251  00000+0  58725-3 0  9998
2 40966  64.7622 211.4541 0120928 103.5284 257.9336 14.94829632350356
FOX-1A (AO-85)          
1 40967U 15058D   26063.76096392  .00005565  00000+0  50222-3 0  9998
2 40967  64.7737 243.3435 0129144  97.8982 263.6811 14.90304252 98004
SINOD-D 1               
1 40968U 15058E   26064.15799164  .00007354  00000+0  59775-3 0  9990
2 40968  64.7748 224.4655 0117464  95.0786 266.3748 14.94988414101102
SNAP-3 ALICE            
1 40970U 15058G   26064.23350662  .00068719  00000+0  15010-2 0  9993
2 40970  64.7553  98.3479 0037614  70.2479 290.2709 15.43027029100768
LMRST-SAT               
1 40971U 15058H   26063.95865768  .00005187  00000+0  47133-3 0  9992
2 40971  64.7743 238.8742 0131246  99.7607 261.8355 14.89938625 98027
SNAP-3 EDDIE            
1 40972U 15058J   26064.23314069  .00065767  00000+0  13882-2 0  9991
2 40972  64.7476  89.7672 0038584  75.3594 285.1817 15.44008149102896
PROPCUBE 3              
1 40973U 15058K   26063.84385886  .00006408  00000+0  53639-3 0  9995
2 40973  64.7682 218.3493 0123828 101.6130 259.8912 14.93465837 99211
BISONSAT                
1 40974U 15058L   26063.66989768  .00017054  00000+0  88172-3 0  9994
2 40974  64.7605 150.9263 0079538  93.0668 267.9560 15.13644296 99783
