[{"OBJECT_NAME":"TIGRISAT","OBJECT_ID":"2014-033AK","EPOCH":"2026-03-04T11:13:55.506720","MEAN_MOTION":14.84695897,"ECCENTRICITY":0.00506946,"INCLINATION":97.7659,"RA_OF_ASC_NODE":215.9997,"ARG_OF_PERICENTER":59.1928,"MEAN_ANOMALY":301.4262,"EPHEMERIS_TYPE":0,"CLASSIFICATION_TYPE":"U","NORAD_CAT_ID":40043,"ELEMENT_SET_NO":999,"REV_AT_EPOCH":63008,"BSTAR":0.00042734623,"MEAN_MOTION_DOT":3.648e-5,"MEAN_MOTION_DDOT":0},{"OBJECT_NAME":"AEROCUBE 6A","OBJECT_ID":"2014-033AM","EPOCH":"2026-03-04T22:00:34.279488","MEAN_MOTION":14.96758406,"ECCENTRICITY":0.00392278,"INCLINATION":97.7114,"RA_OF_ASC_NODE":232.1248,"ARG_OF_PERICENTER":5.574,"MEAN_ANOMALY":354.591,"EPHEMERIS_TYPE":0,"CLASSIFICATION_TYPE":"U","NORAD_CAT_ID":40045,"ELEMENT_SET_NO":999,"REV_AT_EPOCH":63101,"BSTAR":0.00074135002,"MEAN_MOTION_DOT":8.557e-5,"MEAN_MOTION_DDOT":0},{"OBJECT_NAME":"AEROCUBE 6B","OBJECT_ID":"2014-033AN","EPOCH":"2026-03-04T16:25:21.295200","MEAN_MOTION":14.98143365,"ECCENTRICITY":0.00376571,"INCLINATION":97.7113,"RA_OF_ASC_NODE":231.4787,"ARG_OF_PERICENTER":359.4038,"MEAN_ANOMALY":0.7133,"EPHEMERIS_TYPE":0,"CLASSIFICATION_TYPE":"U","NORAD_CAT_ID":40046,"ELEMENT_SET_NO":999,"REV_AT_EPOCH":63110,"BSTAR":0.00088939757,"MEAN_MOTION_DOT":0.00010644,"MEAN_MOTION_DDOT":0},{"OBJECT_NAME":"CANX-4","OBJECT_ID":"2014-034C","EPOCH":"2026-03-05T04:25:38.092224","MEAN_MOTION":14.81048424,"ECCENTRICITY":0.00126386,"INCLINATION":98.3284,"RA_OF_ASC_NODE":295.5991,"ARG_OF_PERICENTER":351.2831,"MEAN_ANOMALY":8.8158,"EPHEMERIS_TYPE":0,"CLASSIFICATION_TYPE":"U","NORAD_CAT_ID":40055,"ELEMENT_SET_NO":999,"REV_AT_EPOCH":62913,"BSTAR":0.00021590628,"MEAN_MOTION_DOT":1.619e-5,"MEAN_MOTION_DDOT":0},{"OBJECT_NAME":"CANX-5","OBJECT_ID":"2014-034D","EPOCH":"2026-03-05T04:25:05.588544","MEAN_MOTION":14.81065089,"ECCENTRICITY":0.00126396,"INCLINATION":98.3285,"RA_OF_ASC_NODE":295.6362,"ARG_OF_PERICENTER":351.483,"MEAN_ANOMALY":8.6165,"EPHEMERIS_TYPE":0,"CLASSIFICATION_TYPE":"U","NORAD_CAT_ID":40056,"ELEMENT_SET_NO":999,"REV_AT_EPOCH":61994,"BSTAR":0.00021571331,"MEAN_MOTION_DOT":1.618e-5,"MEAN_MOTION_DDOT":0},{"OBJECT_NAME":"UKUBE-1","OBJECT_ID":"2014-037F","EPOCH":"2026-03-04T22:01:42.047328","MEAN_MOTION":15.11664851,"ECCENTRICITY":0.00027523,"INCLINATION":98.4229,"RA_OF_ASC_NODE":56.3944,"ARG_OF_PERICENTER":116.7674,"MEAN_ANOMALY":243.3835,"EPHEMERIS_TYPE":0,"CLASSIFICATION_TYPE":"U","NORAD_CAT_ID":40074,"ELEMENT_SET_NO":999,"REV_AT_EPOCH":63279,"BSTAR":0.00079920005,"MEAN_MOTION_DOT":0.00013536,"MEAN_MOTION_DDOT":0},{"OBJECT_NAME":"BRITE-PL2 (HEWELIUSZ)","OBJECT_ID":"2014-049B","EPOCH":"2026-03-05T06:04:37.648992","MEAN_MOTION":14.94153983,"ECCENTRICITY":0.00155779,"INCLINATION":97.8983,"RA_OF_ASC_NODE":175.558,"ARG_OF_PERICENTER":94.9848,"MEAN_ANOMALY":265.315,"EPHEMERIS_TYPE":0,"CLASSIFICATION_TYPE":"U","NORAD_CAT_ID":40119,"ELEMENT_SET_NO":999,"REV_AT_EPOCH":62592,"BSTAR":0.00037386319,"MEAN_MOTION_DOT":3.951e-5,"MEAN_MOTION_DDOT":0},{"OBJECT_NAME":"AEROCUBE 5C","OBJECT_ID":"2015-058B","EPOCH":"2026-03-04T21:10:17.467968","MEAN_MOTION":14.9080415,"ECCENTRICITY":0.01309748,"INCLINATION":64.7665,"RA_OF_ASC_NODE":226.9201,"ARG_OF_PERICENTER":104.4024,"MEAN_ANOMALY":257.1666,"EPHEMERIS_TYPE":0,"CLASSIFICATION_TYPE":"U","NORAD_CAT_ID":40965,"ELEMENT_SET_NO":999,"REV_AT_EPOCH":35010,"BSTAR":0.00049124887,"MEAN_MOTION_DOT":5.54e-5,"MEAN_MOTION_DDOT":0},{"OBJECT_NAME":"AEROCUBE 7","OBJECT_ID":"2015-058C","EPOCH":"2026-03-04T20:00:30.742560","MEAN_MOTION":14.94829632,"ECCENTRICITY":0.01209286,"INCLINATION":64.7622,"RA_OF_ASC_NODE":211.4541,"ARG_OF_PERICENTER":103.5284,"MEAN_ANOMALY":257.9336,"EPHEMERIS_TYPE":0,"CLASSIFICATION_TYPE":"U","NORAD_CAT_ID":40966,"ELEMENT_SET_NO":999,"REV_AT_EPOCH":35035,"BSTAR":0.00058724726,"MEAN_MOTION_DOT":7.251e-5,"MEAN_MOTION_DDOT":0},{"OBJECT_NAME":"FOX-1A (AO-85)","OBJECT_ID":"2015-058D","EPOCH":"2026-03-04T18:15:47.282688","MEAN_MOTION":14.90304252,"ECCENTRICITY":0.0129144,"INCLINATION":64.7737,"RA_OF_ASC_NODE":243.3435,"ARG_OF_PERICENTER":97.8982,"MEAN_ANOMALY":263.6811,"EPHEMERIS_TYPE":0,"CLASSIFICATION_TYPE":"U","NORAD_CAT_ID":40967,"ELEMENT_SET_NO":999,"REV_AT_EPOCH":9800,"BSTAR":0.00050222147,"MEAN_MOTION_DOT":5.565e-5,"MEAN_MOTION_DDOT":0},{"OBJECT_NAME":"SINOD-D 1","OBJECT_ID":"2015-058E","EPOCH":"2026-03-05T03:47:30.477696","MEAN_MOTION":14.94988414,"ECCENTRICITY":0.01174646,"INCLINATION":64.7748,"RA_OF_ASC_NODE":224.4655,"ARG_OF_PERICENTER":95.0786,"MEAN_ANOMALY":266.3748,"EPHEMERIS_TYPE":0,"CLASSIFICATION_TYPE":"U","NORAD_CAT_ID":40968,"ELEMENT_SET_NO":999,"REV_AT_EPOCH":10110,"BSTAR":0.00059774825,"MEAN_MOTION_DOT":7.354e-5,"MEAN_MOTION_DDOT":0},{"OBJECT_NAME":"SNAP-3 ALICE","OBJECT_ID":"2015-058G","EPOCH":"2026-03-05T05:36:14.971968","MEAN_MOTION":15.43027029,"ECCENTRICITY":0.00376147,"INCLINATION":64.7553,"RA_OF_ASC_NODE":98.3479,"ARG_OF_PERICENTER":70.2479,"MEAN_ANOMALY":290.2709,"EPHEMERIS_TYPE":0,"CLASSIFICATION_TYPE":"U","NORAD_CAT_ID":40970,"ELEMENT_SET_NO":999,"REV_AT_EPOCH":10076,"BSTAR":0.0015010284,"MEAN_MOTION_DOT":0.00068719,"MEAN_MOTION_DDOT":0},{"OBJECT_NAME":"LMRST-SAT","OBJECT_ID":"2015-058H","EPOCH":"2026-03-04T23:00:28.023552","MEAN_MOTION":14.89938625,"ECCENTRICITY":0.01312469,"INCLINATION":64.7743,"RA_OF_ASC_NODE":238.8742,"ARG_OF_PERICENTER":99.7607,"MEAN_ANOMALY":261.8355,"EPHEMERIS_TYPE":0,"CLASSIFICATION_TYPE":"U","NORAD_CAT_ID":40971,"ELEMENT_SET_NO":999,"REV_AT_EPOCH":9802,"BSTAR":0.00047133212,"MEAN_MOTION_DOT":5.187e-5,"MEAN_MOTION_DDOT":0},{"OBJECT_NAME":"SNAP-3 EDDIE","OBJECT_ID":"2015-058J","EPOCH":"2026-03-05T05:35:43.355616","MEAN_MOTION":15.44008149,"ECCENTRICITY":0.00385841,"INCLINATION":64.7476,"RA_OF_ASC_NODE":89.7672,"ARG_OF_PERICENTER":75.3594,"MEAN_ANOMALY":285.1817,"EPHEMERIS_TYPE":0,"CLASSIFICATION_TYPE":"U","NORAD_CAT_ID":40972,"ELEMENT_SET_NO":999,"REV_AT_EPOCH":10289,"BSTAR":0.0013882279,"MEAN_MOTION_DOT":0.00065767,"MEAN_MOTION_DDOT":0},{"OBJECT_NAME":"PROPCUBE 3","OBJECT_ID":"2015-058K","EPOCH":"2026-03-04T20:15:09.405504","MEAN_MOTION":14.93465837,"ECCENTRICITY":0.01238288,"INCLINATION":64.7682,"RA_OF_ASC_NODE":218.3493,"ARG_OF_PERICENTER":101.613,"MEAN_ANOMALY":259.8912,"EPHEMERIS_TYPE":0,"CLASSIFICATION_TYPE":"U","NORAD_CAT_ID":40973,"ELEMENT_SET_NO":999,"REV_AT_EPOCH":9921,"BSTAR":0.00053638985,"MEAN_MOTION_DOT":6.408e-5,"MEAN_MOTION_DDOT":0},{"OBJECT_NAME":"BISONSAT","OBJECT_ID":"2015-058L","EPOCH":"2026-03-04T16:04:39.159552","MEAN_MOTION":15.13644296,"ECCENTRICITY":0.0079538,"INCLINATION":64.7605,"RA_OF_ASC_NODE":150.9263,"ARG_OF_PERICENTER":93.0668,"MEAN_ANOMALY":267.956,"EPHEMERIS_TYPE":0,"CLASSIFICATION_TYPE":"U","NORAD_CAT_ID":40974,"ELEMENT_SET_NO":999,"REV_AT_EPOCH":9978,"BSTAR":0.00088171853,"MEAN_MOTION_DOT":0.00017054,"MEAN_MOTION_DDOT":0}]
